{
  "type": "FeatureCollection",
  "features": [
    {
      "type": "Feature",
      "properties": {
        "norad_id": 66651,
        "name": "2025-274B",
        "group": "last-30-days",
        "lat": -53.16483452412522,
        "lon": 86.61797236440842,
        "alt_km": 591.8370017457419,
        "timestamp": "2025-12-15T22:44:27.660898+00:00",
        "meta_object_name": "2025-274B",
        "meta_object_id": "2025-274B",
        "meta_epoch": "2025-12-15T07:12:27.796608",
        "meta_mean_motion": 14.91821445,
        "meta_eccentricity": 0.00106791,
        "meta_inclination": 97.7388,
        "meta_ra_of_asc_node": 276.4424,
        "meta_arg_of_pericenter": 240.7182,
        "meta_mean_anomaly": 119.297,
        "meta_ephemeris_type": 0,
        "meta_classification_type": "U",
        "meta_norad_cat_id": 66651,
        "meta_element_set_no": 999,
        "meta_rev_at_epoch": 278,
        "meta_bstar": 0.00028846735,
        "meta_mean_motion_dot": 2.858e-05,
        "meta_mean_motion_ddot": 0,
        "tle_line1": "1 66651U 25274B   25349.30032172  .00002858  00000+0  28847-3 0  9999",
        "tle_line2": "2 66651  97.7388 276.4424 0010679 240.7182 119.2970 14.91821445  2789"
      },
      "geometry": {
        "type": "Point",
        "coordinates": [
          86.61797236440842,
          -53.16483452412522
        ]
      }
    },
    {
      "type": "Feature",
      "properties": {
        "norad_id": 66652,
        "name": "2025-274C",
        "group": "last-30-days",
        "lat": -61.70859903494395,
        "lon": 82.44733093460252,
        "alt_km": 591.9845775663216,
        "timestamp": "2025-12-15T22:44:27.660908+00:00",
        "meta_object_name": "2025-274C",
        "meta_object_id": "2025-274C",
        "meta_epoch": "2025-12-15T07:10:09.080544",
        "meta_mean_motion": 14.91919225,
        "meta_eccentricity": 0.00102615,
        "meta_inclination": 97.7394,
        "meta_ra_of_asc_node": 276.4456,
        "meta_arg_of_pericenter": 247.771,
        "meta_mean_anomaly": 112.2421,
        "meta_ephemeris_type": 0,
        "meta_classification_type": "U",
        "meta_norad_cat_id": 66652,
        "meta_element_set_no": 999,
        "meta_rev_at_epoch": 278,
        "meta_bstar": 0.00025427643,
        "meta_mean_motion_dot": 2.518e-05,
        "meta_mean_motion_ddot": 0,
        "tle_line1": "1 66652U 25274C   25349.29871621  .00002518  00000+0  25428-3 0  9993",
        "tle_line2": "2 66652  97.7394 276.4456 0010261 247.7710 112.2421 14.91919225  2781"
      },
      "geometry": {
        "type": "Point",
        "coordinates": [
          82.44733093460252,
          -61.70859903494395
        ]
      }
    },
    {
      "type": "Feature",
      "properties": {
        "norad_id": 66653,
        "name": "2025-274D",
        "group": "last-30-days",
        "lat": -62.14470851219386,
        "lon": 82.17086549790724,
        "alt_km": 591.3393617447746,
        "timestamp": "2025-12-15T22:44:27.660917+00:00",
        "meta_object_name": "2025-274D",
        "meta_object_id": "2025-274D",
        "meta_epoch": "2025-12-15T05:33:27.145152",
        "meta_mean_motion": 14.91922532,
        "meta_eccentricity": 0.00111736,
        "meta_inclination": 97.7391,
        "meta_ra_of_asc_node": 276.3796,
        "meta_arg_of_pericenter": 244.0296,
        "meta_mean_anomaly": 115.9772,
        "meta_ephemeris_type": 0,
        "meta_classification_type": "U",
        "meta_norad_cat_id": 66653,
        "meta_element_set_no": 999,
        "meta_rev_at_epoch": 277,
        "meta_bstar": 0.0002062714,
        "meta_mean_motion_dot": 2.033e-05,
        "meta_mean_motion_ddot": 0,
        "tle_line1": "1 66653U 25274D   25349.23156418  .00002033  00000+0  20627-3 0  9996",
        "tle_line2": "2 66653  97.7391 276.3796 0011173 244.0296 115.9772 14.91922532  2770"
      },
      "geometry": {
        "type": "Point",
        "coordinates": [
          82.17086549790724,
          -62.14470851219386
        ]
      }
    },
    {
      "type": "Feature",
      "properties": {
        "norad_id": 66654,
        "name": "JACK E",
        "group": "last-30-days",
        "lat": -73.06230021641099,
        "lon": 70.56466981876345,
        "alt_km": 590.7258874104664,
        "timestamp": "2025-12-15T22:44:27.660929+00:00",
        "meta_object_name": "JACK E",
        "meta_object_id": "2025-274E",
        "meta_epoch": "2025-12-15T07:06:59.686560",
        "meta_mean_motion": 14.92101204,
        "meta_eccentricity": 0.00116592,
        "meta_inclination": 97.7394,
        "meta_ra_of_asc_node": 276.4488,
        "meta_arg_of_pericenter": 245.5252,
        "meta_mean_anomaly": 114.4751,
        "meta_ephemeris_type": 0,
        "meta_classification_type": "U",
        "meta_norad_cat_id": 66654,
        "meta_element_set_no": 999,
        "meta_rev_at_epoch": 278,
        "meta_bstar": 0.00024359131,
        "meta_mean_motion_dot": 2.422e-05,
        "meta_mean_motion_ddot": 0,
        "tle_line1": "1 66654U 25274E   25349.29652415  .00002422  00000+0  24359-3 0  9999",
        "tle_line2": "2 66654  97.7394 276.4488 0011659 245.5252 114.4751 14.92101204  2788"
      },
      "geometry": {
        "type": "Point",
        "coordinates": [
          70.56466981876345,
          -73.06230021641099
        ]
      }
    },
    {
      "type": "Feature",
      "properties": {
        "norad_id": 66655,
        "name": "2025-274F",
        "group": "last-30-days",
        "lat": -66.07310519776414,
        "lon": 79.2511511505481,
        "alt_km": 603.5604233226732,
        "timestamp": "2025-12-15T22:44:27.660940+00:00",
        "meta_object_name": "2025-274F",
        "meta_object_id": "2025-274F",
        "meta_epoch": "2025-12-15T08:45:05.638176",
        "meta_mean_motion": 14.91164366,
        "meta_eccentricity": 0.00052445,
        "meta_inclination": 97.7326,
        "meta_ra_of_asc_node": 276.5125,
        "meta_arg_of_pericenter": 12.5035,
        "meta_mean_anomaly": 347.6313,
        "meta_ephemeris_type": 0,
        "meta_classification_type": "U",
        "meta_norad_cat_id": 66655,
        "meta_element_set_no": 999,
        "meta_rev_at_epoch": 279,
        "meta_bstar": 1.0104241e-05,
        "meta_mean_motion_dot": 4.5e-07,
        "meta_mean_motion_ddot": 0,
        "tle_line1": "1 66655U 25274F   25349.36464859  .00000045  00000+0  10104-4 0  9994",
        "tle_line2": "2 66655  97.7326 276.5125 0005244  12.5035 347.6313 14.91164366  2799"
      },
      "geometry": {
        "type": "Point",
        "coordinates": [
          79.2511511505481,
          -66.07310519776414
        ]
      }
    },
    {
      "type": "Feature",
      "properties": {
        "norad_id": 66656,
        "name": "2025-274G",
        "group": "last-30-days",
        "lat": -81.92913387206112,
        "lon": 23.54802132367918,
        "alt_km": 590.2016435918777,
        "timestamp": "2025-12-15T22:44:27.660950+00:00",
        "meta_object_name": "2025-274G",
        "meta_object_id": "2025-274G",
        "meta_epoch": "2025-12-15T05:27:06.968736",
        "meta_mean_motion": 14.92293354,
        "meta_eccentricity": 0.00123258,
        "meta_inclination": 97.7392,
        "meta_ra_of_asc_node": 276.3854,
        "meta_arg_of_pericenter": 247.5109,
        "meta_mean_anomaly": 112.4806,
        "meta_ephemeris_type": 0,
        "meta_classification_type": "U",
        "meta_norad_cat_id": 66656,
        "meta_element_set_no": 999,
        "meta_rev_at_epoch": 277,
        "meta_bstar": 0.00028122209,
        "meta_mean_motion_dot": 2.819e-05,
        "meta_mean_motion_ddot": 0,
        "tle_line1": "1 66656U 25274G   25349.22716399  .00002819  00000+0  28122-3 0  9998",
        "tle_line2": "2 66656  97.7392 276.3854 0012325 247.5109 112.4806 14.92293354  2774"
      },
      "geometry": {
        "type": "Point",
        "coordinates": [
          23.54802132367918,
          -81.92913387206112
        ]
      }
    },
    {
      "type": "Feature",
      "properties": {
        "norad_id": 66657,
        "name": "SPIRONE",
        "group": "last-30-days",
        "lat": -77.32368641981063,
        "lon": -45.703675403791394,
        "alt_km": 590.4678046738054,
        "timestamp": "2025-12-15T22:44:27.660962+00:00",
        "meta_object_name": "SPIRONE",
        "meta_object_id": "2025-274H",
        "meta_epoch": "2025-12-14T21:21:11.889216",
        "meta_mean_motion": 14.92469641,
        "meta_eccentricity": 0.0010573,
        "meta_inclination": 97.7387,
        "meta_ra_of_asc_node": 276.0581,
        "meta_arg_of_pericenter": 267.8338,
        "meta_mean_anomaly": 92.1671,
        "meta_ephemeris_type": 0,
        "meta_classification_type": "U",
        "meta_norad_cat_id": 66657,
        "meta_element_set_no": 999,
        "meta_rev_at_epoch": 272,
        "meta_bstar": 0.00029561901,
        "meta_mean_motion_dot": 2.979e-05,
        "meta_mean_motion_ddot": 0,
        "tle_line1": "1 66657U 25274H   25348.88972094  .00002979  00000+0  29562-3 0  9992",
        "tle_line2": "2 66657  97.7387 276.0581 0010573 267.8338  92.1671 14.92469641  2728"
      },
      "geometry": {
        "type": "Point",
        "coordinates": [
          -45.703675403791394,
          -77.32368641981063
        ]
      }
    }
  ]
}